{
  "norad_id": 56703,
  "name": "STARLINK-30132",
  "history": [
    {
      "epoch": "2026-03-28T11:56:45.630240",
      "apogee_km": 486.3530975520662,
      "perigee_km": 484.6467974069237,
      "latitude_deg": 37.114467443854394,
      "longitude_deg": -101.91596639994532,
      "semi_major_axis_km": 6863.636947479495,
      "eccentricity": 0.0001243,
      "inclination_deg": 42.9995,
      "raan_deg": 167.6318,
      "arg_perigee_deg": 256.9449,
      "mean_anomaly_deg": 103.1264,
      "mean_motion_rev_day": 15.26761876
    },
    {
      "epoch": "2026-03-29T05:13:04.024416",
      "apogee_km": 485.9999986508701,
      "perigee_km": 485.11870003961485,
      "latitude_deg": 37.262813101594745,
      "longitude_deg": -32.82886175997555,
      "semi_major_axis_km": 6863.696349345242,
      "eccentricity": 6.42e-05,
      "inclination_deg": 43.0003,
      "raan_deg": 163.5736,
      "arg_perigee_deg": 244.304,
      "mean_anomaly_deg": 115.7745,
      "mean_motion_rev_day": 15.26742056
    }
  ]
}